NORAD_CAT_ID,OBJECT_NAME,OBJECT_TYPE,EPOCH,MEAN_MOTION,ECCENTRICITY,INCLINATION,RA_OF_ASC_NODE,ARG_OF_PERICENTER,MEAN_ANOMALY,BSTAR,MEAN_MOTION_DOT,MEAN_MOTION_DDOT,TLE_LINE0,TLE_LINE1,TLE_LINE2,SEMIMAJOR_AXIS,PERIOD,APOGEE,PERIGEE,DECAYED
51869.0,STARLINK-3588,PAYLOAD,2024-08-05 22:58:58,15.08831172,0.0001522,53.2173,96.1364,92.9815,267.1351,-7.4842e-05,-1.479e-05,0.0,0 STARLINK-3588,1 51869U 22022T   24218.95762572 -.00001479  00000-0 -74842-4 0  9999,2 51869  53.2173  96.1364 0001522  92.9815 267.1351 15.08831172135443,6917.907,95.438,540.825,538.719,0.0
51869.0,STARLINK-3588,PAYLOAD,2024-08-06 21:14:22,15.08843089,0.0001379,53.217,91.9706,104.482,255.6325,2.5399e-05,1.16e-06,0.0,0 STARLINK-3588,1 51869U 22022T   24219.88498341  .00000116  00000-0  25399-4 0  9990,2 51869  53.2170  91.9706 0001379 104.4820 255.6325 15.08843089135586,6917.871,95.437,540.69,538.782,0.0
51869.0,STARLINK-3588,PAYLOAD,2024-08-07 21:05:09,15.08846403,0.0001347,53.2172,87.5072,92.112,268.0026,0.00021132,3.077e-05,0.0,0 STARLINK-3588,1 51869U 22022T   24220.87857861  .00003077  00000-0  21132-3 0  9996,2 51869  53.2172  87.5072 0001347  92.1120 268.0026 15.08846403135732,6917.861,95.437,540.658,538.794,0.0
51869.0,STARLINK-3588,PAYLOAD,2024-08-08 00:15:55,15.08855329,0.0001335,53.2157,86.9133,93.7646,266.3499,0.00030603,4.588e-05,0.0,0 STARLINK-3588,1 51869U 22022T   24221.01105590  .00004588  00000-0  30603-3 0  9999,2 51869  53.2157  86.9133 0001335  93.7646 266.3499 15.08855329135757,6917.834,95.437,540.622,538.775,0.0
51869.0,STARLINK-3588,PAYLOAD,2024-08-08 20:55:56,15.08846208,0.0001538,53.2167,83.0509,97.2771,262.8396,0.00010537,1.39e-05,0.0,0 STARLINK-3588,1 51869U 22022T   24221.87218049  .00001390  00000-0  10537-3 0  9999,2 51869  53.2167  83.0509 0001538  97.2771 262.8396 15.08846208135883,6917.861,95.437,540.79,538.662,0.0
51869.0,STARLINK-3588,PAYLOAD,2024-08-08 22:31:19,15.08857021,0.0001412,53.217,82.7489,111.0612,249.0531,0.00028718,4.288e-05,0.0,0 STARLINK-3588,1 51869U 22022T   24221.93841458  .00004288  00000-0  28718-3 0  9991,2 51869  53.2170  82.7489 0001412 111.0612 249.0531 15.08857021135894,6917.828,95.436,540.67,538.717,0.0
51869.0,STARLINK-3588,PAYLOAD,2024-08-09 00:06:41,15.08859878,0.0001377,53.2168,82.4501,113.9088,246.2048,0.00032501,4.891e-05,0.0,0 STARLINK-3588,1 51869U 22022T   24222.00465266  .00004891  00000-0  32501-3 0  9994,2 51869  53.2168  82.4501 0001377 113.9088 246.2048 15.08859878135907,6917.82,95.436,540.637,538.732,0.0
51869.0,STARLINK-3588,PAYLOAD,2024-08-09 08:03:38,15.08836283,0.0001664,53.2174,80.9611,97.4912,262.627,-6.1938e-05,-1.274e-05,0.0,0 STARLINK-3588,1 51869U 22022T   24222.33586134 -.00001274  00000-0 -61938-4 0  9999,2 51869  53.2174  80.9611 0001664  97.4912 262.6270 15.08836283135959,6917.892,95.438,540.908,538.606,0.0
51869.0,STARLINK-3588,PAYLOAD,2024-08-09 14:25:11,15.08836009,0.0001656,53.216,79.7746,92.522,267.5962,-7.2284e-05,-1.438e-05,0.0,0 STARLINK-3588,1 51869U 22022T   24222.60082233 -.00001438  00000-0 -72284-4 0  9998,2 51869  53.2160  79.7746 0001656  92.5220 267.5962 15.08836009135990,6917.893,95.438,540.903,538.612,0.0
51869.0,STARLINK-3588,PAYLOAD,2024-08-09 20:46:43,15.08840739,0.0001125,53.2137,78.5854,92.2002,267.9119,3.9546e-05,3.42e-06,0.0,0 STARLINK-3588,1 51869U 22022T   24222.86577986  .00000342  00000-0  39546-4 0  9995,2 51869  53.2137  78.5854 0001125  92.2002 267.9119 15.08840739136036,6917.878,95.438,540.521,538.965,0.0
51869.0,STARLINK-3588,PAYLOAD,2024-08-09 23:57:29,15.08849439,0.0001334,53.2166,77.9875,101.9091,258.2051,0.00026566,3.944e-05,0.0,0 STARLINK-3588,1 51869U 22022T   24222.99825732  .00003944  00000-0  26566-3 0  9992,2 51869  53.2166  77.9875 0001334 101.9091 258.2051 15.08849439136058,6917.852,95.437,540.639,538.794,0.0
51869.0,STARLINK-3588,PAYLOAD,2024-08-10 14:15:58,15.08836755,0.0001315,53.216,75.313,89.7785,270.3358,1.9474e-06,-2.57e-06,0.0,0 STARLINK-3588,1 51869U 22022T   24223.59442655 -.00000257  00000-0  19474-5 0  9995,2 51869  53.2160  75.3130 0001315  89.7785 270.3358 15.08836755136142,6917.89,95.438,540.665,538.846,0.0
51869.0,STARLINK-3588,PAYLOAD,2024-08-10 20:37:30,15.08844393,0.0001405,53.216,74.1254,89.2019,270.9134,0.00035836,5.421e-05,0.0,0 STARLINK-3588,1 51869U 22022T   24223.85938578  .00005421  00000-0  35836-3 0  9993,2 51869  53.2160  74.1254 0001405  89.2019 270.9134 15.08844393136180,6917.867,95.437,540.704,538.76,0.0
51869.0,STARLINK-3588,PAYLOAD,2024-08-11 20:28:17,15.0885272,0.0001451,53.2167,69.6621,98.4372,261.6784,0.00037613,5.705e-05,0.0,0 STARLINK-3588,1 51869U 22022T   24224.85298166  .00005705  00000-0  37613-3 0  9996,2 51869  53.2167  69.6621 0001451  98.4372 261.6784 15.08852720136337,6917.842,95.437,540.71,538.703,0.0
51869.0,STARLINK-3588,PAYLOAD,2024-08-11 23:39:03,15.08854962,0.0001497,53.2167,69.0669,99.2054,260.9107,0.00038331,5.82e-05,0.0,0 STARLINK-3588,1 51869U 22022T   24224.98545998  .00005820  00000-0  38331-3 0  9994,2 51869  53.2167  69.0669 0001497  99.2054 260.9107 15.08854962136352,6917.835,95.437,540.735,538.664,0.0
51869.0,STARLINK-3588,PAYLOAD,2024-08-12 13:57:31,15.08846192,0.0001961,53.2174,66.3905,100.6438,259.4775,6.5618e-05,7.56e-06,0.0,0 STARLINK-3588,1 51869U 22022T   24225.58162028  .00000756  00000-0  65618-4 0  9992,2 51869  53.2174  66.3905 0001961 100.6438 259.4775 15.08846192136442,6917.861,95.437,541.083,538.37,0.0
51869.0,STARLINK-3588,PAYLOAD,2024-08-12 20:19:04,15.08861935,8.06e-05,53.2172,65.2018,67.3085,292.7993,0.00042876,6.547e-05,0.0,0 STARLINK-3588,1 51869U 22022T   24225.84657499  .00006547  00000-0  42876-3 0  9996,2 51869  53.2172  65.2018 0000806  67.3085 292.7993 15.08861935136485,6917.813,95.436,540.236,539.121,0.0
51869.0,STARLINK-3588,PAYLOAD,2024-08-13 13:48:21,15.08795563,0.0002369,53.2166,61.9336,99.8829,260.243,-0.00087468,-0.00014166,0.0,0 STARLINK-3588,1 51869U 22022T   24226.57524741 -.00014166  00000-0 -87468-3 0  9994,2 51869  53.2166  61.9336 0002369  99.8829 260.2430 15.08795563136597,6918.016,95.44,541.52,538.242,0.0
51869.0,STARLINK-3588,PAYLOAD,2024-08-13 20:09:53,15.08819689,0.0001949,53.2145,60.7426,104.9706,255.1502,-5.7372e-06,-3.79e-06,0.0,0 STARLINK-3588,1 51869U 22022T   24226.84020453 -.00000379  00000-0 -57372-5 0  9999,2 51869  53.2145  60.7426 0001949 104.9706 255.1502 15.08819689136630,6917.942,95.439,541.156,538.459,0.0
51869.0,STARLINK-3588,PAYLOAD,2024-08-13 21:45:16,15.0881986,0.0002002,53.2146,60.4453,105.1666,254.9547,1.1079e-05,-1.12e-06,0.0,0 STARLINK-3588,1 51869U 22022T   24226.90644556 -.00000112  00000-0  11079-4 0  9999,2 51869  53.2146  60.4453 0002002 105.1666 254.9547 15.08819860136645,6917.942,95.439,541.192,538.422,0.0
51869.0,STARLINK-3588,PAYLOAD,2024-08-14 05:42:12,15.08830526,0.0001973,53.2165,58.9598,109.3,250.8206,0.00026256,3.892e-05,0.0,0 STARLINK-3588,1 51869U 22022T   24227.23764555  .00003892  00000-0  26256-3 0  9997,2 51869  53.2165  58.9598 0001973 109.3000 250.8206 15.08830526136696,6917.909,95.438,541.139,538.409,0.0
51869.0,STARLINK-3588,PAYLOAD,2024-08-14 21:36:03,15.0886113,0.0001519,53.2166,55.9859,111.6361,248.4793,0.00085153,0.00013298,0.0,0 STARLINK-3588,1 51869U 22022T   24227.90004407  .00013298  00000-0  85153-3 0  9996,2 51869  53.2166  55.9859 0001519 111.6361 248.4793 15.08861130136796,6917.816,95.436,540.732,538.63,0.0
51869.0,STARLINK-3588,PAYLOAD,2024-08-15 05:32:59,15.08864782,0.0001428,53.2163,54.499,109.0236,251.091,0.00063404,9.824e-05,0.0,0 STARLINK-3588,1 51869U 22022T   24228.23123967  .00009824  00000-0  63404-3 0  9991,2 51869  53.2163  54.4990 0001428 109.0236 251.0910 15.08864782136847,6917.805,95.436,540.658,538.682,0.0
51869.0,STARLINK-3588,PAYLOAD,2024-08-16 05:23:45,15.08865472,8.1e-05,53.216,50.0383,104.8587,255.2494,0.00080039,0.00012482,0.0,0 STARLINK-3588,1 51869U 22022T   24229.22482996  .00012482  00000-0  80039-3 0  9998,2 51869  53.2160  50.0383 0000810 104.8587 255.2494 15.08865472136994,6917.803,95.436,540.228,539.107,0.0
51869.0,STARLINK-3588,PAYLOAD,2024-08-16 21:17:37,15.08850144,0.0002984,53.2155,47.0647,88.1594,271.974,0.00060872,9.416e-05,0.0,0 STARLINK-3588,1 51869U 22022T   24229.88723757  .00009416  00000-0  60872-3 0  9999,2 51869  53.2155  47.0647 0002984  88.1594 271.9740 15.08850144137094,6917.849,95.437,541.779,537.65,0.0
51869.0,STARLINK-3588,PAYLOAD,2024-08-17 11:36:05,15.08851156,0.0004,53.2142,44.387,87.8234,272.3217,0.00031448,4.722e-05,0.0,0 STARLINK-3588,1 51869U 22022T   24230.48339865  .00004722  00000-0  31448-3 0  9992,2 51869  53.2142  44.3870 0004000  87.8234 272.3217 15.08851156137184,6917.846,95.437,542.478,536.944,0.0
51869.0,STARLINK-3588,PAYLOAD,2024-08-18 17:48:24,15.08852032,0.0001419,53.2184,38.7396,90.252,269.8635,0.0004415,6.748e-05,0.0,0 STARLINK-3588,1 51869U 22022T   24231.74195108  .00006748  00000-0  44150-3 0  9996,2 51869  53.2184  38.7396 0001419  90.2520 269.8635 15.08852032137377,6917.844,95.437,540.69,538.727,0.0
51869.0,STARLINK-3588,PAYLOAD,2024-08-19 12:53:02,15.08841915,0.0002079,53.2181,35.1649,142.3239,217.7899,8.5708e-05,1.076e-05,0.0,0 STARLINK-3588,1 51869U 22022T   24232.53683004  .00001076  00000-0  85708-4 0  9995,2 51869  53.2181  35.1649 0002079 142.3239 217.7899 15.08841915137490,6917.875,95.437,541.178,538.301,0.0
51869.0,STARLINK-3588,PAYLOAD,2024-08-20 11:08:26,15.08840671,0.0001402,53.2186,31.0031,122.0778,238.0351,-4.8687e-05,-1.063e-05,0.0,0 STARLINK-3588,1 51869U 22022T   24233.46419348 -.00001063  00000-0 -48687-4 0  9999,2 51869  53.2186  31.0031 0001402 122.0778 238.0351 15.08840671137630,6917.878,95.438,540.713,538.773,0.0
51869.0,STARLINK-3588,PAYLOAD,2024-08-20 14:19:12,15.08844014,0.0001295,53.2181,30.4157,84.0553,276.0587,7.5406e-05,9.13e-06,0.0,0 STARLINK-3588,1 51869U 22022T   24233.59667477  .00000913  00000-0  75406-4 0  9991,2 51869  53.2181  30.4157 0001295  84.0553 276.0587 15.08844014137655,6917.868,95.437,540.629,538.837,0.0
